{"type": "FeatureCollection", "features": [ {"type": "Feature", "properties": {"norad_id": 36442, "name": "COSMOS 2251 DEB", "group": "cosmos-2251-debris", "lat": -35.36846313042364, "lon": -161.47286445941123, "alt_km": 467.7212190849741, "timestamp": "2025-12-27T21:25:02.914256+00:00", "meta": {"OBJECT_NAME": "COSMOS 2251 DEB", "OBJECT_ID": "1993-036BAR", "EPOCH": "2025-12-21T18:51:31.867200", "MEAN_MOTION": 15.32486394, "ECCENTRICITY": 0.00080169, "INCLINATION": 73.9482, "RA_OF_ASC_NODE": 19.8637, "ARG_OF_PERICENTER": 316.0651, "MEAN_ANOMALY": 43.9914, "EPHEMERIS_TYPE": 0, "CLASSIFICATION_TYPE": "U", "NORAD_CAT_ID": 36442, "ELEMENT_SET_NO": 999, "REV_AT_EPOCH": 86054, "BSTAR": 0.0050536247, "MEAN_MOTION_DOT": 0.00162161, "MEAN_MOTION_DDOT": 0}, "tle": {"line1": "1 36442U 93036BAR 25355.78578550  .00162161  00000+0  50536-2 0  9992", "line2": "2 36442  73.9482  19.8637 0008016 316.0651  43.9914 15.32486394860543"}}, "geometry": {"type": "Point", "coordinates": [-161.47286445941123, -35.36846313042364]}}, {"type": "Feature", "properties": {"norad_id": 36451, "name": "COSMOS 2251 DEB", "group": "cosmos-2251-debris", "lat": 34.66088632057483, "lon": -40.491264578705206, "alt_km": 830.7566543042885, "timestamp": "2025-12-27T21:25:02.914267+00:00", "meta": {"OBJECT_NAME": "COSMOS 2251 DEB", "OBJECT_ID": "1993-036BBA", "EPOCH": "2025-12-17T15:51:47.903904", "MEAN_MOTION": 14.18761243, "ECCENTRICITY": 0.01833733, "INCLINATION": 73.9538, "RA_OF_ASC_NODE": 326.3887, "ARG_OF_PERICENTER": 149.6881, "MEAN_ANOMALY": 211.5024, "EPHEMERIS_TYPE": 0, "CLASSIFICATION_TYPE": "U", "NORAD_CAT_ID": 36451, "ELEMENT_SET_NO": 999, "REV_AT_EPOCH": 84295, "BSTAR": 0.0004725236, "MEAN_MOTION_DOT": 1.135e-05, "MEAN_MOTION_DDOT": 0}, "tle": {"line1": "1 36451U 93036BBA 25351.66097111  .00001135  00000+0  47252-3 0  9999", "line2": "2 36451  73.9538 326.3887 0183373 149.6881 211.5024 14.18761243842955"}}, "geometry": {"type": "Point", "coordinates": [-40.491264578705206, 34.66088632057483]}}, {"type": "Feature", "properties": {"norad_id": 36453, "name": "COSMOS 2251 DEB", "group": "cosmos-2251-debris", "lat": -20.128469035265, "lon": 117.5485294058384, "alt_km": 685.1262178120751, "timestamp": "2025-12-27T21:25:02.914277+00:00", "meta": {"OBJECT_NAME": "COSMOS 2251 DEB", "OBJECT_ID": "1993-036BBC", "EPOCH": "2025-12-27T02:28:26.944896", "MEAN_MOTION": 14.52707209, "ECCENTRICITY": 0.00707607, "INCLINATION": 73.9237, "RA_OF_ASC_NODE": 125.114, "ARG_OF_PERICENTER": 24.4373, "MEAN_ANOMALY": 149.0425, "EPHEMERIS_TYPE": 0, "CLASSIFICATION_TYPE": "U", "NORAD_CAT_ID": 36453, "ELEMENT_SET_NO": 999, "REV_AT_EPOCH": 84676, "BSTAR": 0.0010340192, "MEAN_MOTION_DOT": 4.355e-05, "MEAN_MOTION_DDOT": 0}, "tle": {"line1": "1 36453U 93036BBC 25361.10308964  .00004355  00000+0  10340-2 0  9996", "line2": "2 36453  73.9237 125.1140 0070760  24.4373 149.0425 14.52707209846764"}}, "geometry": {"type": "Point", "coordinates": [117.5485294058384, -20.128469035265]}}, {"type": "Feature", "properties": {"norad_id": 36459, "name": "COSMOS 2251 DEB", "group": "cosmos-2251-debris", "lat": -74.01383812447891, "lon": -120.72262582619864, "alt_km": 884.1259589146375, "timestamp": "2025-12-27T21:25:02.914288+00:00", "meta": {"OBJECT_NAME": "COSMOS 2251 DEB", "OBJECT_ID": "1993-036BBJ", "EPOCH": "2025-12-20T06:23:01.272480", "MEAN_MOTION": 14.26454896, "ECCENTRICITY": 0.0113312, "INCLINATION": 74.0464, "RA_OF_ASC_NODE": 346.1968, "ARG_OF_PERICENTER": 79.9168, "MEAN_ANOMALY": 281.4741, "EPHEMERIS_TYPE": 0, "CLASSIFICATION_TYPE": "U", "NORAD_CAT_ID": 36459, "ELEMENT_SET_NO": 999, "REV_AT_EPOCH": 7989, "BSTAR": 0.00092616994, "MEAN_MOTION_DOT": 2.362e-05, "MEAN_MOTION_DDOT": 0}, "tle": {"line1": "1 36459U 93036BBJ 25354.26598695  .00002362  00000+0  92617-3 0  9997", "line2": "2 36459  74.0464 346.1968 0113312  79.9168 281.4741 14.26454896 79891"}}, "geometry": {"type": "Point", "coordinates": [-120.72262582619864, -74.01383812447891]}}, {"type": "Feature", "properties": {"norad_id": 36470, "name": "COSMOS 2251 DEB", "group": "cosmos-2251-debris", "lat": 69.72771104654599, "lon": -85.42431077390192, "alt_km": 519.0011329570225, "timestamp": "2025-12-27T21:25:02.914298+00:00", "meta": {"OBJECT_NAME": "COSMOS 2251 DEB", "OBJECT_ID": "1993-036BBV", "EPOCH": "2025-12-26T21:12:15.465312", "MEAN_MOTION": 15.08626133, "ECCENTRICITY": 0.0022915, "INCLINATION": 73.8425, "RA_OF_ASC_NODE": 224.9633, "ARG_OF_PERICENTER": 51.4821, "MEAN_ANOMALY": 308.8419, "EPHEMERIS_TYPE": 0, "CLASSIFICATION_TYPE": "U", "NORAD_CAT_ID": 36470, "ELEMENT_SET_NO": 999, "REV_AT_EPOCH": 66307, "BSTAR": 0.0034896, "MEAN_MOTION_DOT": 0.0005534, "MEAN_MOTION_DDOT": 0}, "tle": {"line1": "1 36470U 93036BBV 25360.88351233  .00055340  00000+0  34896-2 0  9998", "line2": "2 36470  73.8425 224.9633 0022915  51.4821 308.8419 15.08626133663070"}}, "geometry": {"type": "Point", "coordinates": [-85.42431077390192, 69.72771104654599]}}, {"type": "Feature", "properties": {"norad_id": 36528, "name": "COSMOS 2251 DEB", "group": "cosmos-2251-debris", "lat": -68.05090939384525, "lon": -17.064767772603318, "alt_km": 796.5123045655228, "timestamp": "2025-12-27T21:25:02.914309+00:00", "meta": {"OBJECT_NAME": "COSMOS 2251 DEB", "OBJECT_ID": "1993-036BCN", "EPOCH": "2025-12-27T01:46:36.057216", "MEAN_MOTION": 14.30726703, "ECCENTRICITY": 0.0083786, "INCLINATION": 74.0183, "RA_OF_ASC_NODE": 119.0983, "ARG_OF_PERICENTER": 165.6268, "MEAN_ANOMALY": 194.7295, "EPHEMERIS_TYPE": 0, "CLASSIFICATION_TYPE": "U", "NORAD_CAT_ID": 36528, "ELEMENT_SET_NO": 999, "REV_AT_EPOCH": 64632, "BSTAR": 0.0013259325, "MEAN_MOTION_DOT": 3.581e-05, "MEAN_MOTION_DDOT": 0}, "tle": {"line1": "1 36528U 93036BCN 25361.07402844  .00003581  00000+0  13259-2 0  9999", "line2": "2 36528  74.0183 119.0983 0083786 165.6268 194.7295 14.30726703646327"}}, "geometry": {"type": "Point", "coordinates": [-17.064767772603318, -68.05090939384525]}}, {"type": "Feature", "properties": {"norad_id": 36533, "name": "COSMOS 2251 DEB", "group": "cosmos-2251-debris", "lat": 15.331035362096952, "lon": 90.84778499434962, "alt_km": 754.4995257061946, "timestamp": "2025-12-27T21:25:02.914319+00:00", "meta": {"OBJECT_NAME": "COSMOS 2251 DEB", "OBJECT_ID": "1993-036BCT", "EPOCH": "2025-12-24T23:47:29.202144", "MEAN_MOTION": 14.49859831, "ECCENTRICITY": 0.00492005, "INCLINATION": 74.0122, "RA_OF_ASC_NODE": 91.7921, "ARG_OF_PERICENTER": 238.8301, "MEAN_ANOMALY": 120.8031, "EPHEMERIS_TYPE": 0, "CLASSIFICATION_TYPE": "U", "NORAD_CAT_ID": 36533, "ELEMENT_SET_NO": 999, "REV_AT_EPOCH": 84662, "BSTAR": 0.00052465602, "MEAN_MOTION_DOT": 2.029e-05, "MEAN_MOTION_DDOT": 0}, "tle": {"line1": "1 36533U 93036BCT 25358.99131021  .00002029  00000+0  52466-3 0  9998", "line2": "2 36533  74.0122  91.7921 0049200 238.8301 120.8031 14.49859831846620"}}, "geometry": {"type": "Point", "coordinates": [90.84778499434962, 15.331035362096952]}}, {"type": "Feature", "properties": {"norad_id": 36539, "name": "COSMOS 2251 DEB", "group": "cosmos-2251-debris", "lat": 14.147680567408866, "lon": 30.413363394924207, "alt_km": 712.3182914813415, "timestamp": "2025-12-27T21:25:02.914329+00:00", "meta": {"OBJECT_NAME": "COSMOS 2251 DEB", "OBJECT_ID": "1993-036BCZ", "EPOCH": "2025-12-27T11:28:43.173408", "MEAN_MOTION": 14.59389806, "ECCENTRICITY": 0.0026174, "INCLINATION": 74.0237, "RA_OF_ASC_NODE": 27.0619, "ARG_OF_PERICENTER": 169.2051, "MEAN_ANOMALY": 190.9682, "EPHEMERIS_TYPE": 0, "CLASSIFICATION_TYPE": "U", "NORAD_CAT_ID": 36539, "ELEMENT_SET_NO": 999, "REV_AT_EPOCH": 84162, "BSTAR": 0.0006915, "MEAN_MOTION_DOT": 3.262e-05, "MEAN_MOTION_DDOT": 0}, "tle": {"line1": "1 36539U 93036BCZ 25361.47827747  .00003262  00000+0  69150-3 0  9996", "line2": "2 36539  74.0237  27.0619 0026174 169.2051 190.9682 14.59389806841629"}}, "geometry": {"type": "Point", "coordinates": [30.413363394924207, 14.147680567408866]}}, {"type": "Feature", "properties": {"norad_id": 36540, "name": "COSMOS 2251 DEB", "group": "cosmos-2251-debris", "lat": -61.63662006555103, "lon": 119.6182449448804, "alt_km": 701.2437610722127, "timestamp": "2025-12-27T21:25:02.914340+00:00", "meta": {"OBJECT_NAME": "COSMOS 2251 DEB", "OBJECT_ID": "1993-036BDA", "EPOCH": "2025-12-27T03:36:51.804576", "MEAN_MOTION": 14.58631431, "ECCENTRICITY": 0.00145062, "INCLINATION": 74.0284, "RA_OF_ASC_NODE": 153.0694, "ARG_OF_PERICENTER": 223.0902, "MEAN_ANOMALY": 136.9128, "EPHEMERIS_TYPE": 0, "CLASSIFICATION_TYPE": "U", "NORAD_CAT_ID": 36540, "ELEMENT_SET_NO": 999, "REV_AT_EPOCH": 86220, "BSTAR": 0.0016070142, "MEAN_MOTION_DOT": 7.475e-05, "MEAN_MOTION_DDOT": 0}, "tle": {"line1": "1 36540U 93036BDA 25361.15059959  .00007475  00000+0  16070-2 0  9997", "line2": "2 36540  74.0284 153.0694 0014506 223.0902 136.9128 14.58631431862201"}}, "geometry": {"type": "Point", "coordinates": [119.6182449448804, -61.63662006555103]}}, {"type": "Feature", "properties": {"norad_id": 36550, "name": "COSMOS 2251 DEB", "group": "cosmos-2251-debris", "lat": -44.045706868112035, "lon": 1.3990625290269614, "alt_km": 752.9494227948217, "timestamp": "2025-12-27T21:25:02.914351+00:00", "meta": {"OBJECT_NAME": "COSMOS 2251 DEB", "OBJECT_ID": "1993-036BDL", "EPOCH": "2025-12-23T05:19:51.847104", "MEAN_MOTION": 14.27229725, "ECCENTRICITY": 0.00778519, "INCLINATION": 74.0443, "RA_OF_ASC_NODE": 173.7801, "ARG_OF_PERICENTER": 222.1192, "MEAN_ANOMALY": 137.3958, "EPHEMERIS_TYPE": 0, "CLASSIFICATION_TYPE": "U", "NORAD_CAT_ID": 36550, "ELEMENT_SET_NO": 999, "REV_AT_EPOCH": 84745, "BSTAR": 0.00062346046, "MEAN_MOTION_DOT": 1.548e-05, "MEAN_MOTION_DDOT": 0}, "tle": {"line1": "1 36550U 93036BDL 25357.22212786  .00001548  00000+0  62346-3 0  9993", "line2": "2 36550  74.0443 173.7801 0077851 222.1192 137.3958 14.27229725847452"}}, "geometry": {"type": "Point", "coordinates": [1.3990625290269614, -44.045706868112035]}}]}